[{"OBJECT_NAME":"PRSS-1","OBJECT_ID":"2018-056B","EPOCH":"2026-03-09T22:22:59.119680","MEAN_MOTION":14.81812509,"ECCENTRICITY":0.00013581,"INCLINATION":97.7911,"RA_OF_ASC_NODE":139.5221,"ARG_OF_PERICENTER":77.954,"MEAN_ANOMALY":282.1826,"EPHEMERIS_TYPE":0,"CLASSIFICATION_TYPE":"U","NORAD_CAT_ID":43530,"ELEMENT_SET_NO":999,"REV_AT_EPOCH":41373,"BSTAR":0.00012829012,"MEAN_MOTION_DOT":9.62e-6,"MEAN_MOTION_DDOT":0},{"OBJECT_NAME":"CZ-4C R\/B","OBJECT_ID":"2022-106B","EPOCH":"2026-03-09T16:53:51.363744","MEAN_MOTION":15.02433181,"ECCENTRICITY":0.01103472,"INCLINATION":98.0511,"RA_OF_ASC_NODE":147.9459,"ARG_OF_PERICENTER":124.4586,"MEAN_ANOMALY":236.7124,"EPHEMERIS_TYPE":0,"CLASSIFICATION_TYPE":"U","NORAD_CAT_ID":53699,"ELEMENT_SET_NO":999,"REV_AT_EPOCH":19198,"BSTAR":0.00037068081,"MEAN_MOTION_DOT":5.536e-5,"MEAN_MOTION_DDOT":0}]
